{
  "type": "FeatureCollection",
  "features": [
    {
      "type": "Feature",
      "properties": {
        "norad_id": 35618,
        "name": "IRIDIUM 33 DEB",
        "group": "iridium-33-debris",
        "lat": -42.802251467193656,
        "lon": -15.95242619614141,
        "alt_km": 705.8111844199793,
        "timestamp": "2025-12-26T14:28:48.088528+00:00",
        "meta_object_name": "IRIDIUM 33 DEB",
        "meta_object_id": "1997-051QQ",
        "meta_epoch": "2025-12-26T06:24:30.352608",
        "meta_mean_motion": 14.52352312,
        "meta_eccentricity": 0.00279532,
        "meta_inclination": 86.3436,
        "meta_ra_of_asc_node": 347.5894,
        "meta_arg_of_pericenter": 336.1587,
        "meta_mean_anomaly": 23.8322,
        "meta_ephemeris_type": 0,
        "meta_classification_type": "U",
        "meta_norad_cat_id": 35618,
        "meta_element_set_no": 999,
        "meta_rev_at_epoch": 65590,
        "meta_bstar": 0.00055338246,
        "meta_mean_motion_dot": 2.283e-05,
        "meta_mean_motion_ddot": 0,
        "tle_line1": "1 35618U 97051QQ  25360.26701797  .00002283  00000+0  55338-3 0  9991",
        "tle_line2": "2 35618  86.3436 347.5894 0027953 336.1587  23.8322 14.52352312655907"
      },
      "geometry": {
        "type": "Point",
        "coordinates": [
          -15.95242619614141,
          -42.802251467193656
        ]
      }
    },
    {
      "type": "Feature",
      "properties": {
        "norad_id": 35620,
        "name": "IRIDIUM 33 DEB",
        "group": "iridium-33-debris",
        "lat": -39.304006728525046,
        "lon": -151.35692735475558,
        "alt_km": 799.1251650055892,
        "timestamp": "2025-12-26T14:28:48.088538+00:00",
        "meta_object_name": "IRIDIUM 33 DEB",
        "meta_object_id": "1997-051QS",
        "meta_epoch": "2025-12-24T07:34:12.963648",
        "meta_mean_motion": 14.38396346,
        "meta_eccentricity": 0.01383994,
        "meta_inclination": 86.3888,
        "meta_ra_of_asc_node": 212.5717,
        "meta_arg_of_pericenter": 220.3755,
        "meta_mean_anomaly": 138.7108,
        "meta_ephemeris_type": 0,
        "meta_classification_type": "U",
        "meta_norad_cat_id": 35620,
        "meta_element_set_no": 999,
        "meta_rev_at_epoch": 60132,
        "meta_bstar": 0.0050036177,
        "meta_mean_motion_dot": 0.00017094,
        "meta_mean_motion_ddot": 0,
        "tle_line1": "1 35620U 97051QS  25358.31542782  .00017094  00000+0  50036-2 0  9999",
        "tle_line2": "2 35620  86.3888 212.5717 0138399 220.3755 138.7108 14.38396346601328"
      },
      "geometry": {
        "type": "Point",
        "coordinates": [
          -151.35692735475558,
          -39.304006728525046
        ]
      }
    },
    {
      "type": "Feature",
      "properties": {
        "norad_id": 35622,
        "name": "IRIDIUM 33 DEB",
        "group": "iridium-33-debris",
        "lat": 27.224177075394486,
        "lon": 74.8033287061022,
        "alt_km": 547.9166480620825,
        "timestamp": "2025-12-26T14:28:48.088549+00:00",
        "meta_object_name": "IRIDIUM 33 DEB",
        "meta_object_id": "1997-051QU",
        "meta_epoch": "2025-12-25T17:12:10.126368",
        "meta_mean_motion": 15.06103394,
        "meta_eccentricity": 0.0003068,
        "meta_inclination": 86.1982,
        "meta_ra_of_asc_node": 257.202,
        "meta_arg_of_pericenter": 275.1977,
        "meta_mean_anomaly": 113.6581,
        "meta_ephemeris_type": 0,
        "meta_classification_type": "U",
        "meta_norad_cat_id": 35622,
        "meta_element_set_no": 999,
        "meta_rev_at_epoch": 87555,
        "meta_bstar": 0.0039806522,
        "meta_mean_motion_dot": 0.00058587,
        "meta_mean_motion_ddot": 0,
        "tle_line1": "1 35622U 97051QU  25359.71678387  .00058587  00000+0  39807-2 0  9992",
        "tle_line2": "2 35622  86.1982 257.2020 0003068 275.1977 113.6581 15.06103394875554"
      },
      "geometry": {
        "type": "Point",
        "coordinates": [
          74.8033287061022,
          27.224177075394486
        ]
      }
    },
    {
      "type": "Feature",
      "properties": {
        "norad_id": 35628,
        "name": "IRIDIUM 33 DEB",
        "group": "iridium-33-debris",
        "lat": -78.99854800377146,
        "lon": -157.9802425032105,
        "alt_km": 669.9214406049787,
        "timestamp": "2025-12-26T14:28:48.088560+00:00",
        "meta_object_name": "IRIDIUM 33 DEB",
        "meta_object_id": "1997-051RA",
        "meta_epoch": "2025-12-26T06:45:19.101312",
        "meta_mean_motion": 14.67776082,
        "meta_eccentricity": 0.00092374,
        "meta_inclination": 86.3573,
        "meta_ra_of_asc_node": 3.0346,
        "meta_arg_of_pericenter": 290.0377,
        "meta_mean_anomaly": 69.9843,
        "meta_ephemeris_type": 0,
        "meta_classification_type": "U",
        "meta_norad_cat_id": 35628,
        "meta_element_set_no": 999,
        "meta_rev_at_epoch": 86645,
        "meta_bstar": 0.0014358993,
        "meta_mean_motion_dot": 8.215e-05,
        "meta_mean_motion_ddot": 0,
        "tle_line1": "1 35628U 97051RA  25360.28147108  .00008215  00000+0  14359-2 0  9992",
        "tle_line2": "2 35628  86.3573   3.0346 0009237 290.0377  69.9843 14.67776082866459"
      },
      "geometry": {
        "type": "Point",
        "coordinates": [
          -157.9802425032105,
          -78.99854800377146
        ]
      }
    },
    {
      "type": "Feature",
      "properties": {
        "norad_id": 35631,
        "name": "IRIDIUM 33 DEB",
        "group": "iridium-33-debris",
        "lat": -41.76769678713348,
        "lon": -161.74139829146583,
        "alt_km": 752.2825747785892,
        "timestamp": "2025-12-26T14:28:48.088570+00:00",
        "meta_object_name": "IRIDIUM 33 DEB",
        "meta_object_id": "1997-051RD",
        "meta_epoch": "2025-12-25T01:14:45.811104",
        "meta_mean_motion": 14.47344148,
        "meta_eccentricity": 0.00192475,
        "meta_inclination": 86.3663,
        "meta_ra_of_asc_node": 15.6731,
        "meta_arg_of_pericenter": 81.4254,
        "meta_mean_anomaly": 341.8279,
        "meta_ephemeris_type": 0,
        "meta_classification_type": "U",
        "meta_norad_cat_id": 35631,
        "meta_element_set_no": 999,
        "meta_rev_at_epoch": 87375,
        "meta_bstar": 0.00038061169,
        "meta_mean_motion_dot": 1.417e-05,
        "meta_mean_motion_ddot": 0,
        "tle_line1": "1 35631U 97051RD  25359.05191911  .00001417  00000+0  38061-3 0  9994",
        "tle_line2": "2 35631  86.3663  15.6731 0019247  81.4254 341.8279 14.47344148873756"
      },
      "geometry": {
        "type": "Point",
        "coordinates": [
          -161.74139829146583,
          -41.76769678713348
        ]
      }
    },
    {
      "type": "Feature",
      "properties": {
        "norad_id": 35680,
        "name": "IRIDIUM 33 DEB",
        "group": "iridium-33-debris",
        "lat": -36.41865893437673,
        "lon": 12.499249280656436,
        "alt_km": 825.2089468814665,
        "timestamp": "2025-12-26T14:28:48.088583+00:00",
        "meta_object_name": "IRIDIUM 33 DEB",
        "meta_object_id": "1997-051RJ",
        "meta_epoch": "2025-12-25T12:20:44.933280",
        "meta_mean_motion": 14.2111887,
        "meta_eccentricity": 0.015075,
        "meta_inclination": 86.1022,
        "meta_ra_of_asc_node": 15.8645,
        "meta_arg_of_pericenter": 237.61,
        "meta_mean_anomaly": 276.707,
        "meta_ephemeris_type": 0,
        "meta_classification_type": "U",
        "meta_norad_cat_id": 35680,
        "meta_element_set_no": 999,
        "meta_rev_at_epoch": 60882,
        "meta_bstar": 0.0034387,
        "meta_mean_motion_dot": 8.4e-05,
        "meta_mean_motion_ddot": 0,
        "tle_line1": "1 35680U 97051RJ  25359.51440895  .00008400  00000+0  34387-2 0  9992",
        "tle_line2": "2 35680  86.1022  15.8645 0150750 237.6100 276.7070 14.21118870608825"
      },
      "geometry": {
        "type": "Point",
        "coordinates": [
          12.499249280656436,
          -36.41865893437673
        ]
      }
    },
    {
      "type": "Feature",
      "properties": {
        "norad_id": 35744,
        "name": "IRIDIUM 33 DEB",
        "group": "iridium-33-debris",
        "lat": -32.74339053934908,
        "lon": -43.19418961246409,
        "alt_km": 678.9464176755027,
        "timestamp": "2025-12-26T14:28:48.088603+00:00",
        "meta_object_name": "IRIDIUM 33 DEB",
        "meta_object_id": "1997-051RX",
        "meta_epoch": "2025-12-24T15:17:19.932000",
        "meta_mean_motion": 14.71145759,
        "meta_eccentricity": 0.00219113,
        "meta_inclination": 86.3301,
        "meta_ra_of_asc_node": 320.0594,
        "meta_arg_of_pericenter": 150.6894,
        "meta_mean_anomaly": 209.5557,
        "meta_ephemeris_type": 0,
        "meta_classification_type": "U",
        "meta_norad_cat_id": 35744,
        "meta_element_set_no": 999,
        "meta_rev_at_epoch": 87506,
        "meta_bstar": 0.0011850025,
        "meta_mean_motion_dot": 7.344e-05,
        "meta_mean_motion_ddot": 0,
        "tle_line1": "1 35744U 97051RX  25358.63703625  .00007344  00000+0  11850-2 0  9994",
        "tle_line2": "2 35744  86.3301 320.0594 0021911 150.6894 209.5557 14.71145759875069"
      },
      "geometry": {
        "type": "Point",
        "coordinates": [
          -43.19418961246409,
          -32.74339053934908
        ]
      }
    }
  ]
}